ONEWEB-0371             
1 49297U 21090U   24155.80621185 -.00000033  00000+0 -11602-3 0  9991
2 49297  87.9150  92.8952 0002233  80.5295 279.6090 13.19725757129694
ONEWEB-0372             
1 49298U 21090V   24155.45692232  .00000095  00000+0  20147-3 0  9994
2 49298  87.9223  62.4239 0002141  81.6926 278.4450 13.20774431131660
ONEWEB-0373             
1 49299U 21090W   24155.48389148  .00000064  00000+0  12574-3 0  9998
2 49299  87.9222  62.4349 0001747  88.8878 271.2455 13.20769777132853
ONEWEB-0374             
1 49300U 21090X   24155.75244442 -.00000049  00000+0 -16725-3 0  9995
2 49300  87.8967  77.6167 0001989  83.1231 277.0125 13.14502415131186
ONEWEB-0375             
1 49301U 21090Y   24155.47125737  .00000096  00000+0  20472-3 0  9994
2 49301  87.9222  62.4134 0001213  77.9170 282.2100 13.20769227132355
ONEWEB-0376             
1 49302U 21090Z   24155.57718259 -.00000011  00000+0 -59286-4 0  9998
2 49302  87.9146  92.9501 0002325  85.0844 275.0554 13.19723632128378
ONEWEB-0377             
1 49303U 21090AA  24155.45719534  .00000126  00000+0  27739-3 0  9995
2 49303  87.9222  62.4078 0001947  71.9115 288.2230 13.20773414132343
ONEWEB-0378             
1 49304U 21090AB  24155.47928240 -.00000220  00000+0 -57380-3 0  9996
2 49304  87.9223  62.4059 0001803  80.4111 279.7226 13.20770900131612
